TIANMU-1 20             
1 58661U 23208B   26162.25314318  .00006762  00000+0  21670-3 0  9994
2 58661  97.4435 279.1525 0006528 357.1173   3.0030 15.32674881136516
TIANMU-1 21             
1 58662U 23208C   26162.31557878  .00007790  00000+0  23192-3 0  9995
2 58662  97.4494 281.8706 0006408 348.2581  11.8511 15.34971841136669
TIANMU-1 22             
1 58663U 23208D   26162.25586303  .00006353  00000+0  21486-3 0  9992
2 58663  97.4489 278.4670 0003777  24.9803 335.1620 15.30974344136421
TIANMU-1 15             
1 58700U 24004A   26162.26645116  .00004827  00000+0  18508-3 0  9993
2 58700  97.4670 348.4564 0007301  22.8268 337.3294 15.26961747134870
TIANMU-1 16             
1 58701U 24004B   26162.32016413  .00004793  00000+0  18536-3 0  9996
2 58701  97.4616 347.7537 0006414  27.4936 332.6641 15.26687526134885
TIANMU-1 17             
1 58702U 24004C   26162.30561426  .00004523  00000+0  17509-3 0  9994
2 58702  97.4644 348.2219 0006089  33.2468 326.9152 15.26687014134877
TIANMU-1 18             
1 58703U 24004D   26162.28299594  .00004635  00000+0  17798-3 0  9990
2 58703  97.4662 348.4510 0004615  33.4826 326.6703 15.26945156134870
INSAT-3DS               
1 58990U 24033A   26162.06907617 -.00000139  00000+0  00000+0 0  9998
2 58990   0.0387 132.0078 0001113 302.8934 291.4796  1.00272371 47009
METEOR-M2 4             
1 59051U 24039A   26162.27470060  .00000002  00000+0  20757-4 0  9997
2 59051  98.7008 121.6471 0006935 177.7293 182.3917 14.22428978118429
GOES 19                 
1 60133U 24119A   26162.15669696 -.00000231  00000+0  00000+0 0  9990
2 60133   0.0342 157.3070 0000464   7.5191  75.9076  1.00271012  6907
MTG-S1                  
1 64723U 25143A   26162.19470483 -.00000015  00000+0  00000+0 0  9995
2 64723   0.6088 337.5377 0000974  19.9913 328.6325  1.00271599  3357
METOP-SGA1              
1 65159U 25172A   26162.15581401  .00000030  00000+0  33461-4 0  9998
2 65159  98.6644 221.9935 0000941  89.4082 270.7203 14.21508829 42930
FENGYUN 3H              
1 65815U 25219A   26162.12189230  .00000029  00000+0  33974-4 0  9997
2 65815  98.6767 103.0090 0001631  81.3481 278.7880 14.19919434 36520
