OBJECT_NAME,OBJECT_ID,EPOCH,MEAN_MOTION,ECCENTRICITY,INCLINATION,RA_OF_ASC_NODE,ARG_OF_PERICENTER,MEAN_ANOMALY,EPHEMERIS_TYPE,CLASSIFICATION_TYPE,NORAD_CAT_ID,ELEMENT_SET_NO,REV_AT_EPOCH,BSTAR,MEAN_MOTION_DOT,MEAN_MOTION_DDOT
TIANMU-1 20,2023-208B,2026-06-11T06:04:31.570752,15.32674881,.00065288,97.4435,279.1525,357.1173,3.0030,0,U,58661,999,13651,.21670367E-3,.6762E-4,0
TIANMU-1 21,2023-208C,2026-06-11T07:34:26.006592,15.34971841,.0006408,97.4494,281.8706,348.2581,11.8511,0,U,58662,999,13666,.23192461E-3,.779E-4,0
TIANMU-1 22,2023-208D,2026-06-11T06:08:26.565792,15.30974344,.00037778,97.4489,278.4670,24.9803,335.1620,0,U,58663,999,13642,.21486211E-3,.6353E-4,0
TIANMU-1 15,2024-004A,2026-06-11T06:23:41.380224,15.26961747,.0007301,97.4670,348.4564,22.8268,337.3294,0,U,58700,999,13487,.18507923E-3,.4827E-4,0
TIANMU-1 16,2024-004B,2026-06-11T07:41:02.180832,15.26687526,.00064144,97.4616,347.7537,27.4936,332.6641,0,U,58701,999,13488,.1853647E-3,.4793E-4,0
TIANMU-1 17,2024-004C,2026-06-11T07:20:05.072064,15.26687014,.00060893,97.4644,348.2219,33.2468,326.9152,0,U,58702,999,13487,.17509341E-3,.4523E-4,0
TIANMU-1 18,2024-004D,2026-06-11T06:47:30.849216,15.26945156,.00046159,97.4662,348.4510,33.4826,326.6703,0,U,58703,999,13487,.1779849E-3,.4635E-4,0
INSAT-3DS,2024-033A,2026-06-11T01:39:28.181088,1.00272371,.00011134,0.0387,132.0078,302.8934,291.4796,0,U,58990,999,4700,0,-.139E-5,0
METEOR-M2 4,2024-039A,2026-06-11T06:35:34.131840,14.22428978,.00069358,98.7008,121.6471,177.7293,182.3917,0,U,59051,999,11842,.20757305E-4,.2E-7,0
GOES 19,2024-119A,2026-06-11T03:45:38.617344,1.00271012,.0000464,0.0342,157.3070,7.5191,75.9076,0,U,60133,999,690,0,-.231E-5,0
MTG-S1,2025-143A,2026-06-11T04:40:22.497312,1.00271599,.00009741,0.6088,337.5377,19.9913,328.6325,0,U,64723,999,335,0,-.15E-6,0
METOP-SGA1,2025-172A,2026-06-11T03:44:22.330464,14.21508829,.00009411,98.6644,221.9935,89.4082,270.7203,0,U,65159,999,4293,.33461245E-4,.3E-6,0
FENGYUN 3H,2025-219A,2026-06-11T02:55:31.494720,14.19919434,.00016316,98.6767,103.0090,81.3481,278.7880,0,U,65815,999,3652,.33973918E-4,.29E-6,0
